[
  {
    "OBJECT_NAME": "STARLINK-33741",
    "OBJECT_ID": "25063C",
    "EPOCH": "2025-11-11T04:33:57.373632",
    "MEAN_MOTION": 15.30216156,
    "ECCENTRICITY": 0.000133,
    "INCLINATION": 53.1596,
    "RA_OF_ASC_NODE": 243.0993,
    "ARG_OF_PERICENTER": 80.7236,
    "MEAN_ANOMALY": 279.3915,
    "EPHEMERIS_TYPE": 0,
    "CLASSIFICATION_TYPE": "U",
    "NORAD_CAT_ID": 63365,
    "ELEMENT_SET_NO": 999,
    "REV_AT_EPOCH": 3661,
    "BSTAR": 0.0019692,
    "MEAN_MOTION_DOT": 0.00058452,
    "MEAN_MOTION_DDOT": 0.0,
    "TLE_LINE1": "1 63365U 25063C   25315.19024738  .00058452  00000+0  19692-2 0  9991",
    "TLE_LINE2": "2 63365  53.1596 243.0993 0001330  80.7236 279.3915 15.30216156 36619",
    "COMMENT": "Grouped by shell and plane from TLE"
  },
  {
    "OBJECT_NAME": "STARLINK-33742",
    "OBJECT_ID": "25063D",
    "EPOCH": "2025-11-11T02:12:47.724192",
    "MEAN_MOTION": 15.3023321,
    "ECCENTRICITY": 0.0001534,
    "INCLINATION": 53.1592,
    "RA_OF_ASC_NODE": 243.1985,
    "ARG_OF_PERICENTER": 92.722,
    "MEAN_ANOMALY": 267.3957,
    "EPHEMERIS_TYPE": 0,
    "CLASSIFICATION_TYPE": "U",
    "NORAD_CAT_ID": 63366,
    "ELEMENT_SET_NO": 999,
    "REV_AT_EPOCH": 3655,
    "BSTAR": 0.0012245000000000001,
    "MEAN_MOTION_DOT": 0.0003612,
    "MEAN_MOTION_DDOT": 0.0,
    "TLE_LINE1": "1 63366U 25063D   25315.09221903  .00036120  00000+0  12245-2 0  9999",
    "TLE_LINE2": "2 63366  53.1592 243.1985 0001534  92.7220 267.3957 15.30233210 36556",
    "COMMENT": "Grouped by shell and plane from TLE"
  },
  {
    "OBJECT_NAME": "STARLINK-33626",
    "OBJECT_ID": "25063G",
    "EPOCH": "2025-11-11T06:38:59.482176",
    "MEAN_MOTION": 15.30226017,
    "ECCENTRICITY": 0.0001281,
    "INCLINATION": 53.1588,
    "RA_OF_ASC_NODE": 240.0855,
    "ARG_OF_PERICENTER": 89.2088,
    "MEAN_ANOMALY": 270.906,
    "EPHEMERIS_TYPE": 0,
    "CLASSIFICATION_TYPE": "U",
    "NORAD_CAT_ID": 63369,
    "ELEMENT_SET_NO": 999,
    "REV_AT_EPOCH": 3661,
    "BSTAR": 0.0015192,
    "MEAN_MOTION_DOT": 0.00044945,
    "MEAN_MOTION_DDOT": 0.0,
    "TLE_LINE1": "1 63369U 25063G   25315.27707734  .00044945  00000+0  15192-2 0  9991",
    "TLE_LINE2": "2 63369  53.1588 240.0855 0001281  89.2088 270.9060 15.30226017 36617",
    "COMMENT": "Grouped by shell and plane from TLE"
  },
  {
    "OBJECT_NAME": "STARLINK-33657",
    "OBJECT_ID": "25063H",
    "EPOCH": "2025-11-11T04:15:43.278336",
    "MEAN_MOTION": 15.30209641,
    "ECCENTRICITY": 0.0001201,
    "INCLINATION": 53.159,
    "RA_OF_ASC_NODE": 243.0207,
    "ARG_OF_PERICENTER": 80.5406,
    "MEAN_ANOMALY": 279.573,
    "EPHEMERIS_TYPE": 0,
    "CLASSIFICATION_TYPE": "U",
    "NORAD_CAT_ID": 63370,
    "ELEMENT_SET_NO": 999,
    "REV_AT_EPOCH": 3656,
    "BSTAR": 0.0011596,
    "MEAN_MOTION_DOT": 0.00034152,
    "MEAN_MOTION_DDOT": 0.0,
    "TLE_LINE1": "1 63370U 25063H   25315.17758424  .00034152  00000+0  11596-2 0  9997",
    "TLE_LINE2": "2 63370  53.1590 243.0207 0001201  80.5406 279.5730 15.30209641 36563",
    "COMMENT": "Grouped by shell and plane from TLE"
  },
  {
    "OBJECT_NAME": "STARLINK-33648",
    "OBJECT_ID": "25063J",
    "EPOCH": "2025-11-11T04:29:23.574624",
    "MEAN_MOTION": 15.30224398,
    "ECCENTRICITY": 9.63e-05,
    "INCLINATION": 53.1594,
    "RA_OF_ASC_NODE": 243.0811,
    "ARG_OF_PERICENTER": 88.7231,
    "MEAN_ANOMALY": 271.388,
    "EPHEMERIS_TYPE": 0,
    "CLASSIFICATION_TYPE": "U",
    "NORAD_CAT_ID": 63371,
    "ELEMENT_SET_NO": 999,
    "REV_AT_EPOCH": 3661,
    "BSTAR": 0.0011212,
    "MEAN_MOTION_DOT": 0.0003302,
    "MEAN_MOTION_DDOT": 0.0,
    "TLE_LINE1": "1 63371U 25063J   25315.18707841  .00033020  00000+0  11212-2 0  9994",
    "TLE_LINE2": "2 63371  53.1594 243.0811 0000963  88.7231 271.3880 15.30224398 36617",
    "COMMENT": "Grouped by shell and plane from TLE"
  },
  {
    "OBJECT_NAME": "STARLINK-33614",
    "OBJECT_ID": "25063K",
    "EPOCH": "2025-11-11T01:35:33.822816",
    "MEAN_MOTION": 15.30217857,
    "ECCENTRICITY": 8.87e-05,
    "INCLINATION": 53.1611,
    "RA_OF_ASC_NODE": 240.907,
    "ARG_OF_PERICENTER": 88.2051,
    "MEAN_ANOMALY": 271.9052,
    "EPHEMERIS_TYPE": 0,
    "CLASSIFICATION_TYPE": "U",
    "NORAD_CAT_ID": 63372,
    "ELEMENT_SET_NO": 999,
    "REV_AT_EPOCH": 3663,
    "BSTAR": 0.0014762,
    "MEAN_MOTION_DOT": 0.00043642,
    "MEAN_MOTION_DDOT": 0.0,
    "TLE_LINE1": "1 63372U 25063K   25315.06636369  .00043642  00000+0  14762-2 0  9992",
    "TLE_LINE2": "2 63372  53.1611 240.9070 0000887  88.2051 271.9052 15.30217857 36632",
    "COMMENT": "Grouped by shell and plane from TLE"
  },
  {
    "OBJECT_NAME": "STARLINK-33617",
    "OBJECT_ID": "25063L",
    "EPOCH": "2025-11-11T04:37:35.286528",
    "MEAN_MOTION": 15.30216888,
    "ECCENTRICITY": 0.0001283,
    "INCLINATION": 53.1601,
    "RA_OF_ASC_NODE": 240.2705,
    "ARG_OF_PERICENTER": 69.6559,
    "MEAN_ANOMALY": 290.4579,
    "EPHEMERIS_TYPE": 0,
    "CLASSIFICATION_TYPE": "U",
    "NORAD_CAT_ID": 63373,
    "ELEMENT_SET_NO": 999,
    "REV_AT_EPOCH": 3660,
    "BSTAR": 0.0015648,
    "MEAN_MOTION_DOT": 0.00046299,
    "MEAN_MOTION_DDOT": 0.0,
    "TLE_LINE1": "1 63373U 25063L   25315.19276952  .00046299  00000+0  15648-2 0  9990",
    "TLE_LINE2": "2 63373  53.1601 240.2705 0001283  69.6559 290.4579 15.30216888 36607",
    "COMMENT": "Grouped by shell and plane from TLE"
  },
  {
    "OBJECT_NAME": "STARLINK-33618",
    "OBJECT_ID": "25063M",
    "EPOCH": "2025-11-11T02:58:58.593792",
    "MEAN_MOTION": 15.30210794,
    "ECCENTRICITY": 0.0001096,
    "INCLINATION": 53.1599,
    "RA_OF_ASC_NODE": 240.5556,
    "ARG_OF_PERICENTER": 54.4146,
    "MEAN_ANOMALY": 305.6956,
    "EPHEMERIS_TYPE": 0,
    "CLASSIFICATION_TYPE": "U",
    "NORAD_CAT_ID": 63374,
    "ELEMENT_SET_NO": 999,
    "REV_AT_EPOCH": 3664,
    "BSTAR": 0.0012252,
    "MEAN_MOTION_DOT": 0.00036116,
    "MEAN_MOTION_DDOT": 0.0,
    "TLE_LINE1": "1 63374U 25063M   25315.12428928  .00036116  00000+0  12252-2 0  9991",
    "TLE_LINE2": "2 63374  53.1599 240.5556 0001096  54.4146 305.6956 15.30210794 36649",
    "COMMENT": "Grouped by shell and plane from TLE"
  },
  {
    "OBJECT_NAME": "STARLINK-33621",
    "OBJECT_ID": "25063N",
    "EPOCH": "2025-11-11T04:31:30.538560",
    "MEAN_MOTION": 15.302254,
    "ECCENTRICITY": 0.0001362,
    "INCLINATION": 53.1606,
    "RA_OF_ASC_NODE": 240.246,
    "ARG_OF_PERICENTER": 66.5801,
    "MEAN_ANOMALY": 293.5343,
    "EPHEMERIS_TYPE": 0,
    "CLASSIFICATION_TYPE": "U",
    "NORAD_CAT_ID": 63375,
    "ELEMENT_SET_NO": 999,
    "REV_AT_EPOCH": 3660,
    "BSTAR": 0.0011572000000000002,
    "MEAN_MOTION_DOT": 0.00034099,
    "MEAN_MOTION_DDOT": 0.0,
    "TLE_LINE1": "1 63375U 25063N   25315.18854790  .00034099  00000+0  11572-2 0  9990",
    "TLE_LINE2": "2 63375  53.1606 240.2460 0001362  66.5801 293.5343 15.30225400 36609",
    "COMMENT": "Grouped by shell and plane from TLE"
  },
  {
    "OBJECT_NAME": "STARLINK-33634",
    "OBJECT_ID": "25063Q",
    "EPOCH": "2025-11-11T03:42:17.196480",
    "MEAN_MOTION": 15.30223795,
    "ECCENTRICITY": 9.11e-05,
    "INCLINATION": 53.1569,
    "RA_OF_ASC_NODE": 242.8694,
    "ARG_OF_PERICENTER": 91.5271,
    "MEAN_ANOMALY": 268.5834,
    "EPHEMERIS_TYPE": 0,
    "CLASSIFICATION_TYPE": "U",
    "NORAD_CAT_ID": 63377,
    "ELEMENT_SET_NO": 999,
    "REV_AT_EPOCH": 3661,
    "BSTAR": 0.0022513,
    "MEAN_MOTION_DOT": 0.00066971,
    "MEAN_MOTION_DDOT": 0.0,
    "TLE_LINE1": "1 63377U 25063Q   25315.15436570  .00066971  00000+0  22513-2 0  9992",
    "TLE_LINE2": "2 63377  53.1569 242.8694 0000911  91.5271 268.5834 15.30223795 36617",
    "COMMENT": "Grouped by shell and plane from TLE"
  },
  {
    "OBJECT_NAME": "STARLINK-33640",
    "OBJECT_ID": "25063R",
    "EPOCH": "2025-11-11T02:15:50.064480",
    "MEAN_MOTION": 15.30203496,
    "ECCENTRICITY": 0.0001155,
    "INCLINATION": 53.1582,
    "RA_OF_ASC_NODE": 243.2067,
    "ARG_OF_PERICENTER": 95.2044,
    "MEAN_ANOMALY": 264.9088,
    "EPHEMERIS_TYPE": 0,
    "CLASSIFICATION_TYPE": "U",
    "NORAD_CAT_ID": 63378,
    "ELEMENT_SET_NO": 999,
    "REV_AT_EPOCH": 3660,
    "BSTAR": 0.0020157,
    "MEAN_MOTION_DOT": 0.00059828,
    "MEAN_MOTION_DDOT": 0.0,
    "TLE_LINE1": "1 63378U 25063R   25315.09432945  .00059828  00000+0  20157-2 0  9993",
    "TLE_LINE2": "2 63378  53.1582 243.2067 0001155  95.2044 264.9088 15.30203496 36608",
    "COMMENT": "Grouped by shell and plane from TLE"
  },
  {
    "OBJECT_NAME": "STARLINK-33636",
    "OBJECT_ID": "25063S",
    "EPOCH": "2025-11-11T05:11:46.746528",
    "MEAN_MOTION": 15.30230271,
    "ECCENTRICITY": 0.0001324,
    "INCLINATION": 53.1586,
    "RA_OF_ASC_NODE": 242.549,
    "ARG_OF_PERICENTER": 94.087,
    "MEAN_ANOMALY": 266.0283,
    "EPHEMERIS_TYPE": 0,
    "CLASSIFICATION_TYPE": "U",
    "NORAD_CAT_ID": 63379,
    "ELEMENT_SET_NO": 999,
    "REV_AT_EPOCH": 3657,
    "BSTAR": 0.0013605000000000002,
    "MEAN_MOTION_DOT": 0.00040192,
    "MEAN_MOTION_DDOT": 0.0,
    "TLE_LINE1": "1 63379U 25063S   25315.21651327  .00040192  00000+0  13605-2 0  9999",
    "TLE_LINE2": "2 63379  53.1586 242.5490 0001324  94.0870 266.0283 15.30230271 36574",
    "COMMENT": "Grouped by shell and plane from TLE"
  },
  {
    "OBJECT_NAME": "STARLINK-33653",
    "OBJECT_ID": "25063T",
    "EPOCH": "2025-11-11T04:05:04.947360",
    "MEAN_MOTION": 15.30207679,
    "ECCENTRICITY": 0.0001307,
    "INCLINATION": 53.1582,
    "RA_OF_ASC_NODE": 242.9701,
    "ARG_OF_PERICENTER": 73.3173,
    "MEAN_ANOMALY": 286.7971,
    "EPHEMERIS_TYPE": 0,
    "CLASSIFICATION_TYPE": "U",
    "NORAD_CAT_ID": 63380,
    "ELEMENT_SET_NO": 999,
    "REV_AT_EPOCH": 3656,
    "BSTAR": 0.00083309,
    "MEAN_MOTION_DOT": 0.00024402,
    "MEAN_MOTION_DDOT": 0.0,
    "TLE_LINE1": "1 63380U 25063T   25315.17019615  .00024402  00000+0  83309-3 0  9999",
    "TLE_LINE2": "2 63380  53.1582 242.9701 0001307  73.3173 286.7971 15.30207679 36566",
    "COMMENT": "Grouped by shell and plane from TLE"
  }
]